[{"OBJECT_NAME":"ASTROCAST-0403","OBJECT_ID":"2023-001DG","EPOCH":"2026-03-09T19:45:35.762976","MEAN_MOTION":15.28004949,"ECCENTRICITY":0.00047706,"INCLINATION":97.5604,"RA_OF_ASC_NODE":161.3228,"ARG_OF_PERICENTER":338.0704,"MEAN_ANOMALY":22.033,"EPHEMERIS_TYPE":0,"CLASSIFICATION_TYPE":"U","NORAD_CAT_ID":55111,"ELEMENT_SET_NO":999,"REV_AT_EPOCH":12937,"BSTAR":0.0005131719,"MEAN_MOTION_DOT":0.00013959,"MEAN_MOTION_DDOT":0},{"OBJECT_NAME":"STARLINK-32665","OBJECT_ID":"2024-229M","EPOCH":"2026-03-09T13:47:22.776288","MEAN_MOTION":15.27580721,"ECCENTRICITY":0.0001599,"INCLINATION":42.9995,"RA_OF_ASC_NODE":271.3734,"ARG_OF_PERICENTER":246.8294,"MEAN_ANOMALY":113.2389,"EPHEMERIS_TYPE":0,"CLASSIFICATION_TYPE":"U","NORAD_CAT_ID":62203,"ELEMENT_SET_NO":999,"REV_AT_EPOCH":7054,"BSTAR":0.00096895,"MEAN_MOTION_DOT":0.00026498,"MEAN_MOTION_DDOT":0}]
